[{"OBJECT_NAME":"STARLINK-31371","OBJECT_ID":"2024-027K","EPOCH":"2026-03-09T22:31:29.379936","MEAN_MOTION":15.30189386,"ECCENTRICITY":0.00012762,"INCLINATION":53.1601,"RA_OF_ASC_NODE":308.6599,"ARG_OF_PERICENTER":63.5369,"MEAN_ANOMALY":296.5763,"EPHEMERIS_TYPE":0,"CLASSIFICATION_TYPE":"U","NORAD_CAT_ID":58940,"ELEMENT_SET_NO":999,"REV_AT_EPOCH":11736,"BSTAR":5.7336565e-5,"MEAN_MOTION_DOT":1.339e-5,"MEAN_MOTION_DDOT":0},{"OBJECT_NAME":"HERMES-3","OBJECT_ID":"2025-052BR","EPOCH":"2026-03-09T22:30:01.073952","MEAN_MOTION":15.30039786,"ECCENTRICITY":0.00079928,"INCLINATION":97.3987,"RA_OF_ASC_NODE":324.6131,"ARG_OF_PERICENTER":112.9583,"MEAN_ANOMALY":247.2502,"EPHEMERIS_TYPE":0,"CLASSIFICATION_TYPE":"U","NORAD_CAT_ID":63835,"ELEMENT_SET_NO":999,"REV_AT_EPOCH":5486,"BSTAR":0.0006995793,"MEAN_MOTION_DOT":0.00020316,"MEAN_MOTION_DDOT":0}]
